IRIDIUM 166             
1 43570U 18061B   23265.83775489  .00000411  00000+0  13972-3 0  9994
2 43570  86.3931 114.0101 0001925  80.1278 280.0135 14.34221052270307
IRIDIUM 158             
1 43571U 18061C   23266.50372304  .00000388  00000+0  13162-3 0  9993
2 43571  86.3929 113.7403 0001707  90.1228 270.0164 14.34222557270379
IRIDIUM 165             
1 43572U 18061D   23266.04071228  .00000399  00000+0  13525-3 0  9999
2 43572  86.3933 113.9617 0001672  90.8801 269.2586 14.34224163270327
IRIDIUM 155             
1 43573U 18061E   23266.07242893  .00000395  00000+0  13382-3 0  9998
2 43573  86.3928 113.8665 0002230  81.0753 279.0695 14.34222675270307
IRIDIUM 154             
1 43574U 18061F   23265.63478112  .00000414  00000+0  14071-3 0  9993
2 43574  86.3929 114.1358 0002314  95.5088 264.6372 14.34221125270284
IRIDIUM 163             
1 43575U 18061G   23266.10413877  .00000403  00000+0  13682-3 0  9999
2 43575  86.3929 113.8842 0002061  89.2542 270.8890 14.34216672270323
IRIDIUM 156             
1 43576U 18061H   23266.49738549  .00000019  00000+0 -20678-6 0  9998
2 43576  86.3929 113.7258 0001913  81.0523 279.0889 14.34219974270369
IRIDIUM 164             
1 43577U 18061J   23265.85043455  .00000406  00000+0  13773-3 0  9997
2 43577  86.3931 114.0214 0001838  87.0165 273.1241 14.34222314270328
